{
  "links" : {
    "next" : "https://api.nasa.gov/neo/rest/v1/feed?start_date=2003-10-09&end_date=2003-10-09&detailed=true&api_key=t0TVs3DtDT2H8Oy2Zy8m2eVrNsAVKAexjcZXUckd",
    "prev" : "https://api.nasa.gov/neo/rest/v1/feed?start_date=2003-10-07&end_date=2003-10-07&detailed=true&api_key=t0TVs3DtDT2H8Oy2Zy8m2eVrNsAVKAexjcZXUckd",
    "self" : "https://api.nasa.gov/neo/rest/v1/feed?start_date=2003-10-08&end_date=2003-10-08&detailed=true&api_key=t0TVs3DtDT2H8Oy2Zy8m2eVrNsAVKAexjcZXUckd"
  },
  "element_count" : 10,
  "near_earth_objects" : {
    "2003-10-08" : [ {
      "links" : {
        "self" : "https://api.nasa.gov/neo/rest/v1/neo/3651205?api_key=t0TVs3DtDT2H8Oy2Zy8m2eVrNsAVKAexjcZXUckd"
      },
      "neo_reference_id" : "3651205",
      "name" : "(2013 UB)",
      "nasa_jpl_url" : "http://ssd.jpl.nasa.gov/sbdb.cgi?sstr=3651205",
      "absolute_magnitude_h" : 26.6,
      "estimated_diameter" : {
        "kilometers" : {
          "estimated_diameter_min" : 0.0127219879,
          "estimated_diameter_max" : 0.0284472297
        },
        "meters" : {
          "estimated_diameter_min" : 12.7219878539,
          "estimated_diameter_max" : 28.4472296503
        },
        "miles" : {
          "estimated_diameter_min" : 0.0079050743,
          "estimated_diameter_max" : 0.0176762835
        },
        "feet" : {
          "estimated_diameter_min" : 41.7388066307,
          "estimated_diameter_max" : 93.330808926
        }
      },
      "is_potentially_hazardous_asteroid" : false,
      "close_approach_data" : [ {
        "close_approach_date" : "2003-10-08",
        "epoch_date_close_approach" : 1065596400000,
        "relative_velocity" : {
          "kilometers_per_second" : "21.8824691776",
          "kilometers_per_hour" : "78776.8890392797",
          "miles_per_hour" : "48948.8953033236"
        },
        "miss_distance" : {
          "astronomical" : "0.4438539112",
          "lunar" : "172.6591796875",
          "kilometers" : "66399600",
          "miles" : "41258800"
        },
        "orbiting_body" : "Earth"
      } ],
      "orbital_data" : {
        "orbit_id" : "19",
        "orbit_determination_date" : "2017-04-06 08:44:08",
        "orbit_uncertainty" : "3",
        "minimum_orbit_intersection" : ".00343614",
        "jupiter_tisserand_invariant" : "6.910",
        "epoch_osculation" : "2458000.5",
        "eccentricity" : ".3147001391204445",
        "semi_major_axis" : ".8466507095626049",
        "inclination" : "3.223395259945169",
        "ascending_node_longitude" : "209.5699870994489",
        "orbital_period" : "284.547544289644",
        "perihelion_distance" : ".5802096134768301",
        "perihelion_argument" : "314.3820047867616",
        "aphelion_distance" : "1.11309180564838",
        "perihelion_time" : "2458094.417208726019",
        "mean_anomaly" : "241.1791005760668",
        "mean_motion" : "1.265166427279204",
        "equinox" : "J2000"
      }
    }, {
      "links" : {
        "self" : "https://api.nasa.gov/neo/rest/v1/neo/3653519?api_key=t0TVs3DtDT2H8Oy2Zy8m2eVrNsAVKAexjcZXUckd"
      },
      "neo_reference_id" : "3653519",
      "name" : "(2013 VX4)",
      "nasa_jpl_url" : "http://ssd.jpl.nasa.gov/sbdb.cgi?sstr=3653519",
      "absolute_magnitude_h" : 23.7,
      "estimated_diameter" : {
        "kilometers" : {
          "estimated_diameter_min" : 0.0483676488,
          "estimated_diameter_max" : 0.1081533507
        },
        "meters" : {
          "estimated_diameter_min" : 48.3676488219,
          "estimated_diameter_max" : 108.1533506775
        },
        "miles" : {
          "estimated_diameter_min" : 0.0300542543,
          "estimated_diameter_max" : 0.0672033557
        },
        "feet" : {
          "estimated_diameter_min" : 158.6865169607,
          "estimated_diameter_max" : 354.8338390368
        }
      },
      "is_potentially_hazardous_asteroid" : false,
      "close_approach_data" : [ {
        "close_approach_date" : "2003-10-08",
        "epoch_date_close_approach" : 1065596400000,
        "relative_velocity" : {
          "kilometers_per_second" : "19.2052985635",
          "kilometers_per_hour" : "69139.0748287256",
          "miles_per_hour" : "42960.3323567712"
        },
        "miss_distance" : {
          "astronomical" : "0.4015760889",
          "lunar" : "156.213104248",
          "kilometers" : "60074932",
          "miles" : "37328832"
        },
        "orbiting_body" : "Earth"
      } ],
      "orbital_data" : {
        "orbit_id" : "7",
        "orbit_determination_date" : "2017-04-06 08:43:49",
        "orbit_uncertainty" : "6",
        "minimum_orbit_intersection" : ".00265357",
        "jupiter_tisserand_invariant" : "3.869",
        "epoch_osculation" : "2458000.5",
        "eccentricity" : ".4709473963654882",
        "semi_major_axis" : "1.845457395963558",
        "inclination" : "3.051305207686706",
        "ascending_node_longitude" : "83.32439126170303",
        "orbital_period" : "915.7026314649733",
        "perihelion_distance" : ".9763440402310867",
        "perihelion_argument" : "352.1125429760876",
        "aphelion_distance" : "2.71457075169603",
        "perihelion_time" : "2457544.981121146472",
        "mean_anomaly" : "179.0830240652669",
        "mean_motion" : ".3931407289111525",
        "equinox" : "J2000"
      }
    }, {
      "links" : {
        "self" : "https://api.nasa.gov/neo/rest/v1/neo/3691160?api_key=t0TVs3DtDT2H8Oy2Zy8m2eVrNsAVKAexjcZXUckd"
      },
      "neo_reference_id" : "3691160",
      "name" : "(2014 SZ261)",
      "nasa_jpl_url" : "http://ssd.jpl.nasa.gov/sbdb.cgi?sstr=3691160",
      "absolute_magnitude_h" : 20.9,
      "estimated_diameter" : {
        "kilometers" : {
          "estimated_diameter_min" : 0.1756123185,
          "estimated_diameter_max" : 0.3926810818
        },
        "meters" : {
          "estimated_diameter_min" : 175.6123184804,
          "estimated_diameter_max" : 392.6810818086
        },
        "miles" : {
          "estimated_diameter_min" : 0.1091204019,
          "estimated_diameter_max" : 0.2440006365
        },
        "feet" : {
          "estimated_diameter_min" : 576.1559189633,
          "estimated_diameter_max" : 1288.3238004408
        }
      },
      "is_potentially_hazardous_asteroid" : false,
      "close_approach_data" : [ {
        "close_approach_date" : "2003-10-08",
        "epoch_date_close_approach" : 1065596400000,
        "relative_velocity" : {
          "kilometers_per_second" : "3.6466799647",
          "kilometers_per_hour" : "13128.0478730883",
          "miles_per_hour" : "8157.258413142"
        },
        "miss_distance" : {
          "astronomical" : "0.3809322201",
          "lunar" : "148.1826324463",
          "kilometers" : "56986648",
          "miles" : "35409860"
        },
        "orbiting_body" : "Earth"
      } ],
      "orbital_data" : {
        "orbit_id" : "30",
        "orbit_determination_date" : "2017-04-06 08:38:22",
        "orbit_uncertainty" : "4",
        "minimum_orbit_intersection" : ".276466",
        "jupiter_tisserand_invariant" : "3.797",
        "epoch_osculation" : "2458000.5",
        "eccentricity" : ".3516568909981072",
        "semi_major_axis" : "1.956841646375495",
        "inclination" : "7.550481295889456",
        "ascending_node_longitude" : "219.8705037239206",
        "orbital_period" : "999.8433232675392",
        "perihelion_distance" : "1.268704796835471",
        "perihelion_argument" : "178.8341268973511",
        "aphelion_distance" : "2.64497849591552",
        "perihelion_time" : "2457963.494316893991",
        "mean_anomaly" : "13.3241334998628",
        "mean_motion" : ".3600564124622062",
        "equinox" : "J2000"
      }
    } ]
  }
}